NORAD_CAT_ID,OBJECT_NAME,OBJECT_TYPE,EPOCH,MEAN_MOTION,ECCENTRICITY,INCLINATION,RA_OF_ASC_NODE,ARG_OF_PERICENTER,MEAN_ANOMALY,BSTAR,MEAN_MOTION_DOT,MEAN_MOTION_DDOT,TLE_LINE0,TLE_LINE1,TLE_LINE2,SEMIMAJOR_AXIS,PERIOD,APOGEE,PERIGEE,DECAYED
53631.0,STARLINK-4599,PAYLOAD,2022-11-30 22:00:00,15.08832167,0.0002164,53.2166,197.2635,46.7558,200.7439,0.0008602999999999,0.00013427,0.0,0 STARLINK-4599,1 53631U 22104AV  22334.91667824  .00013427  00000-0  86030-3 0  9991,2 53631  53.2166 197.2635 0002164  46.7558 200.7439 15.08832167 14690,6917.904,95.438,541.266,538.2719999999998,0.0
53631.0,STARLINK-4599,PAYLOAD,2022-12-01 14:00:01,15.08838402,0.0002139,53.2158,194.2711,51.6874,218.9969,0.0021594,0.00034245,0.0,0 STARLINK-4599,1 53631U 22104AV  22335.58334491  .00034245  00000-0  21594-2 0  9990,2 53631  53.2158 194.2711 0002139  51.6874 218.9969 15.08838402  1302,6917.885,95.438,541.23,538.271,0.0
53631.0,STARLINK-4599,PAYLOAD,2022-12-01 22:00:00,15.08827216,0.0002026,53.2173,192.7721,54.4675,227.822,0.00092528,0.00014463,0.0,0 STARLINK-4599,1 53631U 22104AV  22335.91667824  .00014463  00000-0  92528-3 0  9992,2 53631  53.2173 192.7721 0002026  54.4675 227.8220 15.08827216 14841,6917.919,95.438,541.186,538.383,0.0
53631.0,STARLINK-4599,PAYLOAD,2022-12-02 14:00:01,15.08825854,0.0002157,53.2159,189.782,50.9642,254.5308,0.0018218,0.00028814,0.0,0 STARLINK-4599,1 53631U 22104AV  22336.58334491  .00028814  00000-0  18218-2 0  9995,2 53631  53.2159 189.7820 0002157  50.9642 254.5308 15.08825854  1308,6917.924,95.438,541.281,538.2959999999998,0.0
53631.0,STARLINK-4599,PAYLOAD,2022-12-02 22:00:00,15.08834517,0.000236,53.2159,188.2875,46.9658,270.1225,0.00031534,4.733e-05,0.0,0 STARLINK-4599,1 53631U 22104AV  22336.91667824  .00004733  00000-0  31534-3 0  9992,2 53631  53.2159 188.2875 0002360  46.9658 270.1225 15.08834517  1308,6917.897,95.438,541.395,538.13,0.0
53631.0,STARLINK-4599,PAYLOAD,2022-12-03 08:00:01,15.08833418,0.0002185,53.2161,186.4156,47.5522,14.0323,-0.0017309,-0.00027726,0.0,0 STARLINK-4599,1 53631U 22104AV  22337.33334491 -.00027726  00000-0 -17309-2 0  9992,2 53631  53.2161 186.4156 0002185  47.5522  14.0323 15.08833418 15066,6917.901,95.438,541.2769999999998,538.254,0.0
53631.0,STARLINK-4599,PAYLOAD,2022-12-03 14:00:01,15.08814702,0.0002166,53.2162,185.293,50.252,290.0132,0.0015672,0.00024725,0.0,0 STARLINK-4599,1 53631U 22104AV  22337.58334491  .00024725  00000-0  15672-2 0  9994,2 53631  53.2162 185.2930 0002166  50.2520 290.0132 15.08814702  1303,6917.958000000001,95.439,541.321,538.3240000000002,0.0
53631.0,STARLINK-4599,PAYLOAD,2022-12-03 22:00:00,15.08816638,0.0002393,53.2161,183.7985,46.433,305.4095,0.00063382,9.807e-05,0.0,0 STARLINK-4599,1 53631U 22104AV  22337.91667824  .00009807  00000-0  63382-3 0  9996,2 53631  53.2161 183.7985 0002393  46.4330 305.4095 15.08816638  1302,6917.9519999999975,95.439,541.472,538.161,0.0
53631.0,STARLINK-4599,PAYLOAD,2022-12-04 14:00:01,15.0883063,0.0002255,53.2163,180.8041,51.6856,323.3099,0.0010687,0.00016757,0.0,0 STARLINK-4599,1 53631U 22104AV  22338.58334491  .00016757  00000-0  10687-2 0  9992,2 53631  53.2163 180.8041 0002255  51.6856 323.3099 15.08830630  1304,6917.909000000002,95.438,541.3340000000002,538.214,0.0
53631.0,STARLINK-4599,PAYLOAD,2022-12-04 22:00:00,15.08827905,0.0002458,53.2162,179.3094,47.9458,338.6443,0.00096733,0.00015136,0.0,0 STARLINK-4599,1 53631U 22104AV  22338.91667824  .00015136  00000-0  96733-3 0  9995,2 53631  53.2162 179.3094 0002458  47.9458 338.6443 15.08827905  1308,6917.917,95.438,541.4830000000002,538.082,0.0
53631.0,STARLINK-4599,PAYLOAD,2022-12-05 06:00:00,15.08856572,0.0002351,53.2161,177.8118,49.2734,348.9036,-0.0016370999999999,-0.00026261,0.0,0 STARLINK-4599,1 53631U 22104AV  22339.25001157 -.00026261  00000-0 -16371-2 0  9996,2 53631  53.2161 177.8118 0002351  49.2734 348.9036 15.08856572 15355,6917.83,95.437,541.321,538.068,0.0
53631.0,STARLINK-4599,PAYLOAD,2022-12-05 14:00:01,15.08848014,0.0002296,53.2162,176.315,53.4,356.4369,0.00060996,9.435e-05,0.0,0 STARLINK-4599,1 53631U 22104AV  22339.58335648  .00009435  00000-0  60996-3 0  9992,2 53631  53.2162 176.3150 0002296  53.4000 356.4369 15.08848014  1302,6917.856,95.437,541.309,538.133,0.0
53631.0,STARLINK-4599,PAYLOAD,2022-12-05 20:08:23,15.08836121,0.0002296,53.2175,175.167,50.0486,310.0707,8.0995e-05,1.001e-05,0.0,0 STARLINK-4599,1 53631U 22104AV  22339.83916212  .00001001  00000-0  80995-4 0  9995,2 53631  53.2175 175.1670 0002296  50.0486 310.0707 15.08836121 15449,6917.892,95.438,541.346,538.169,0.0
53631.0,STARLINK-4599,PAYLOAD,2022-12-06 13:37:38,15.08839333,0.0002339,53.2175,171.896,51.5425,308.5776,4.4329e-05,4.17e-06,0.0,0 STARLINK-4599,1 53631U 22104AV  22340.56780242  .00000417  00000-0  44329-4 0  9990,2 53631  53.2175 171.8960 0002339  51.5425 308.5776 15.08839333 16246,6917.882,95.438,541.366,538.129,0.0
53631.0,STARLINK-4599,PAYLOAD,2022-12-06 19:59:11,15.08830616,0.0002363,53.2176,170.7067,52.6651,307.4556,-2.5345e-05,-6.92e-06,0.0,0 STARLINK-4599,1 53631U 22104AV  22340.83277179 -.00000692  00000-0 -25345-4 0  9994,2 53631  53.2176 170.7067 0002363  52.6651 307.4556 15.08830616 16286,6917.909000000002,95.438,541.409,538.139,0.0
53631.0,STARLINK-4599,PAYLOAD,2022-12-06 23:09:57,15.08829678,0.000235,53.2175,170.112,52.0053,308.1151,-3.4666e-05,-8.400000000000001e-06,0.0,0 STARLINK-4599,1 53631U 22104AV  22340.96525328 -.00000840  00000-0 -34666-4 0  9991,2 53631  53.2175 170.1120 0002350  52.0053 308.1151 15.08829678 15616,6917.9119999999975,95.438,541.403,538.151,0.0
53631.0,STARLINK-4599,PAYLOAD,2022-12-07 13:28:26,15.0883508,0.0002315,53.2176,167.4357,52.7887,307.3316,-6.1122e-05,-1.261e-05,0.0,0 STARLINK-4599,1 53631U 22104AV  22341.56141349 -.00001261  00000-0 -61122-4 0  9990,2 53631  53.2176 167.4357 0002315  52.7887 307.3316 15.08835080 16395,6917.895,95.438,541.362,538.159,0.0
53631.0,STARLINK-4599,PAYLOAD,2022-12-07 21:25:21,15.08838146,0.000233,53.2176,165.9489,52.7656,307.3549,-3.08e-05,-7.79e-06,0.0,0 STARLINK-4599,1 53631U 22104AV  22341.89261113 -.00000779  00000-0 -30800-4 0  9990,2 53631  53.2176 165.9489 0002330  52.7656 307.3549 15.08838146 15758,6917.886,95.438,541.363,538.139,0.0
53631.0,STARLINK-4599,PAYLOAD,2022-12-08 05:22:17,15.08840297,0.0002332,53.2175,164.4619,52.6851,307.4353,-1.3816e-05,-5.08e-06,0.0,0 STARLINK-4599,1 53631U 22104AV  22342.22380933 -.00000508  00000-0 -13816-4 0  9998,2 53631  53.2175 164.4619 0002332  52.6851 307.4353 15.08840297 16490,6917.879,95.438,541.3580000000002,538.131,0.0
53631.0,STARLINK-4599,PAYLOAD,2022-12-08 22:51:31,15.08838701,0.0002327,53.2174,161.1909,53.2261,306.8944,8.751e-05,1.105e-05,0.0,0 STARLINK-4599,1 53631U 22104AV  22342.95244646  .00001105  00000-0  87510-4 0  9992,2 53631  53.2174 161.1909 0002327  53.2261 306.8944 15.08838701 15913,6917.884,95.438,541.359,538.14,0.0
53631.0,STARLINK-4599,PAYLOAD,2022-12-09 11:34:36,15.08843516,0.0002321,53.2173,158.8117,54.2923,305.8285,9.5026e-05,1.224e-05,0.0,0 STARLINK-4599,1 53631U 22104AV  22343.48236237  .00001224  00000-0  95026-4 0  9991,2 53631  53.2173 158.8117 0002321  54.2923 305.8285 15.08843516 16688,6917.87,95.437,541.34,538.129,0.0
53631.0,STARLINK-4599,PAYLOAD,2022-12-09 19:31:31,15.08846127,0.0002277,53.2179,157.3258,51.6146,308.505,7.4365e-05,8.96e-06,0.0,0 STARLINK-4599,1 53631U 22104AV  22343.81355984  .00000896  00000-0  74365-4 0  9996,2 53631  53.2179 157.3258 0002277  51.6146 308.5050 15.08846127 16043,6917.861999999999,95.437,541.302,538.151,0.0
53631.0,STARLINK-4599,PAYLOAD,2022-12-10 11:25:23,15.08832363,0.0001879,53.2188,154.3551,40.6378,319.4754,6.8549e-05,8.03e-06,0.0,0 STARLINK-4599,1 53631U 22104AV  22344.47596549  .00000803  00000-0  68549-4 0  9998,2 53631  53.2188 154.3551 0001879  40.6378 319.4754 15.08832363 16148,6917.904,95.438,541.069,538.469,0.0
53631.0,STARLINK-4599,PAYLOAD,2022-12-10 17:46:56,15.0884164,0.0002637,53.2184,153.1647,51.2598,308.8629,-3.5134e-05,-8.48e-06,0.0,0 STARLINK-4599,1 53631U 22104AV  22344.74092630 -.00000848  00000-0 -35134-4 0  9995,2 53631  53.2184 153.1647 0002637  51.2598 308.8629 15.08841640 16873,6917.875,95.437,541.565,537.9159999999998,0.0
53631.0,STARLINK-4599,PAYLOAD,2022-12-10 22:33:07,15.08813583,0.0001633,53.2182,152.276,58.0187,302.0963,-0.0004721999999999,-7.79e-05,0.0,0 STARLINK-4599,1 53631U 22104AV  22344.93967270 -.00007790  00000-0 -47220-3 0  9998,2 53631  53.2182 152.2760 0001633  58.0187 302.0963 15.08813583 16211,6917.9609999999975,95.439,540.956,538.696,0.0
53631.0,STARLINK-4599,PAYLOAD,2022-12-11 17:37:42,15.08840767,0.0002464,53.2179,148.7099,60.9137,299.2102,-0.00010954,-2.031e-05,0.0,0 STARLINK-4599,1 53631U 22104AV  22345.73452527 -.00002031  00000-0 -10954-3 0  9998,2 53631  53.2179 148.7099 0002464  60.9137 299.2102 15.08840767 16331,6917.878000000002,95.438,541.448,538.038,0.0
53631.0,STARLINK-4599,PAYLOAD,2022-12-11 22:24:00,15.08743055,0.0002285,53.2176,147.8174,49.7031,310.4161,-0.0011293,-0.00018169,0.0,0 STARLINK-4599,1 53631U 22104AV  22345.93333403 -.00018169  00000-0 -11293-2 0  9996,2 53631  53.2176 147.8174 0002285  49.7031 310.4161 15.08743055 16367,6918.177,95.444,541.623,538.461,0.0
53631.0,STARLINK-4599,PAYLOAD,2022-12-12 11:06:57,15.08838296,0.0001965,53.2174,145.4297,60.1442,299.9745,-3.3489000000000004e-05,-8.21e-06,0.0,0 STARLINK-4599,1 53631U 22104AV  22346.46316391 -.00000821  00000-0 -33489-4 0  9991,2 53631  53.2174 145.4297 0001965  60.1442 299.9745 15.08838296 16442,6917.886,95.438,541.11,538.391,0.0
53631.0,STARLINK-4599,PAYLOAD,2022-12-13 09:22:21,15.08839422,0.0002157,53.2178,141.268,55.0451,305.0743,7.7491e-06,-1.65e-06,0.0,0 STARLINK-4599,1 53631U 22104AV  22347.39052197 -.00000165  00000-0  77491-5 0  9997,2 53631  53.2178 141.2680 0002157  55.0451 305.0743 15.08839422 17274,6917.882,95.438,541.239,538.255,0.0
